start=new Date('2022-01-20T00:00:00.000Z').valueOf();
sats=[{"TLE_LINE2":"2 46083  53.0539  35.0959 0001534  75.7223 284.3937 15.06407527 81189","PERIAPSIS":"546.128","SITE":"AFETR","ARG_OF_PERICENTER":"75.7223","FILE":"3277729","TIME_SYSTEM":"UTC","RCS_SIZE":"LARGE","OBJECT_TYPE":"PAYLOAD","EPOCH":"2022-01-19T17:27:50.512608","REF_FRAME":"TEME","ELEMENT_SET_NO":"999","SEMIMAJOR_AXIS":"6925.325","BSTAR":"0.00067248000000","RA_OF_ASC_NODE":"35.0959","GP_ID":"194198236","EPHEMERIS_TYPE":"0","ECCENTRICITY":"0.00015340","INCLINATION":"53.0539","COUNTRY_CODE":"US","CLASSIFICATION_TYPE":"U","LAUNCH_DATE":"2020-08-07","MEAN_ELEMENT_THEORY":"SGP4","MEAN_MOTION_DDOT":"0.0000000000000","PERIOD":"95.592","CENTER_NAME":"EARTH","APOAPSIS":"548.253","MEAN_ANOMALY":"284.3937","TLE_LINE1":"1 46083U 20055BJ  22019.72766797  .00009751  00000-0  67248-3 0  9990","OBJECT_NAME":"STARLINK-1579","MEAN_MOTION":"15.06407527","DECAY_DATE":null,"NORAD_CAT_ID":"46083","OBJECT_ID":"2020-055BJ","REV_AT_EPOCH":"8118","MEAN_MOTION_DOT":"0.00009751"},{"FILE":"3277432","TIME_SYSTEM":"UTC","SITE":"AFETR","TLE_LINE2":"2 46117  53.0526 237.0464 0002283  71.0930 289.0306 15.06394303 78695","PERIAPSIS":"545.650","ARG_OF_PERICENTER":"71.0930","REF_FRAME":"TEME","ELEMENT_SET_NO":"999","RCS_SIZE":"LARGE","OBJECT_TYPE":"PAYLOAD","EPOCH":"2022-01-19T07:06:49.771296","EPHEMERIS_TYPE":"0","SEMIMAJOR_AXIS":"6925.366","BSTAR":"0.00004228000000","RA_OF_ASC_NODE":"237.0464","GP_ID":"194191463","INCLINATION":"53.0526","COUNTRY_CODE":"US","ECCENTRICITY":"0.00022830","MEAN_MOTION_DDOT":"0.0000000000000","CENTER_NAME":"EARTH","PERIOD":"95.593","LAUNCH_DATE":"2020-08-18","CLASSIFICATION_TYPE":"U","MEAN_ELEMENT_THEORY":"SGP4","MEAN_MOTION":"15.06394303","DECAY_DATE":null,"NORAD_CAT_ID":"46117","APOAPSIS":"548.812","TLE_LINE1":"1 46117U 20057A   22019.29640939  .00000348  00000-0  42280-4 0  9994","MEAN_ANOMALY":"289.0306","OBJECT_NAME":"STARLINK-1585","OBJECT_ID":"2020-057A","REV_AT_EPOCH":"7869","MEAN_MOTION_DOT":"0.00000348"},{"COUNTRY_CODE":"US","INCLINATION":"53.0534","ECCENTRICITY":"0.00019600","EPHEMERIS_TYPE":"0","GP_ID":"194200700","RA_OF_ASC_NODE":"254.9140","BSTAR":"0.00018742000000","SEMIMAJOR_AXIS":"6925.389","ELEMENT_SET_NO":"999","REF_FRAME":"TEME","EPOCH":"2022-01-19T18:28:53.126112","OBJECT_TYPE":"PAYLOAD","RCS_SIZE":"LARGE","TIME_SYSTEM":"UTC","FILE":"3277872","ARG_OF_PERICENTER":"71.1191","SITE":"AFETR","TLE_LINE2":"2 46118  53.0534 254.9140 0001960  71.1191 289.0010 15.06386720 79142","PERIAPSIS":"545.897","MEAN_MOTION_DOT":"0.00002510","REV_AT_EPOCH":"7914","OBJECT_ID":"2020-057B","NORAD_CAT_ID":"46118","DECAY_DATE":null,"MEAN_MOTION":"15.06386720","TLE_LINE1":"1 46118U 20057B   22019.77005933  .00002510  00000-0  18742-3 0  9995","MEAN_ANOMALY":"289.0010","OBJECT_NAME":"STARLINK-1588","APOAPSIS":"548.612","PERIOD":"95.593","CENTER_NAME":"EARTH","MEAN_MOTION_DDOT":"0.0000000000000","MEAN_ELEMENT_THEORY":"SGP4","CLASSIFICATION_TYPE":"U","LAUNCH_DATE":"2020-08-18"},{"MEAN_ELEMENT_THEORY":"SGP4","CLASSIFICATION_TYPE":"U","LAUNCH_DATE":"2020-08-18","CENTER_NAME":"EARTH","PERIOD":"95.593","MEAN_MOTION_DDOT":"0.0000000000000","MEAN_ANOMALY":"292.0952","TLE_LINE1":"1 46119U 20057C   22019.09553087 -.00001188  00000-0 -60904-4 0  9999","OBJECT_NAME":"STARLINK-1593","APOAPSIS":"548.547","DECAY_DATE":null,"MEAN_MOTION":"15.06390377","NORAD_CAT_ID":"46119","REV_AT_EPOCH":"7964","OBJECT_ID":"2020-057C","MEAN_MOTION_DOT":"-0.00001188","ARG_OF_PERICENTER":"68.0237","PERIAPSIS":"545.939","TLE_LINE2":"2 46119  53.0550 257.9496 0001883  68.0237 292.0952 15.06390377 79645","SITE":"AFETR","FILE":"3277432","TIME_SYSTEM":"UTC","RCS_SIZE":"LARGE","EPOCH":"2022-01-19T02:17:33.867168","OBJECT_TYPE":"PAYLOAD","ELEMENT_SET_NO":"999","REF_FRAME":"TEME","BSTAR":"-0.00006090400000","SEMIMAJOR_AXIS":"6925.378","RA_OF_ASC_NODE":"257.9496","GP_ID":"194189962","EPHEMERIS_TYPE":"0","ECCENTRICITY":"0.00018830","INCLINATION":"53.0550","COUNTRY_CODE":"US"},{"APOAPSIS":"548.603","TLE_LINE1":"1 46120U 20057D   22019.34618695  .00000015  00000-0  19912-4 0  9995","MEAN_ANOMALY":"294.2802","OBJECT_NAME":"STARLINK-1601","NORAD_CAT_ID":"46120","MEAN_MOTION":"15.06378636","DECAY_DATE":null,"LAUNCH_DATE":"2020-08-18","CLASSIFICATION_TYPE":"U","MEAN_ELEMENT_THEORY":"SGP4","MEAN_MOTION_DDOT":"0.0000000000000","CENTER_NAME":"EARTH","PERIOD":"95.593","MEAN_MOTION_DOT":"0.00000015","OBJECT_ID":"2020-057D","REV_AT_EPOCH":"7970","OBJECT_TYPE":"PAYLOAD","EPOCH":"2022-01-19T08:18:30.552480","RCS_SIZE":"LARGE","REF_FRAME":"TEME","ELEMENT_SET_NO":"999","TLE_LINE2":"2 46120  53.0543 256.8176 0001912  65.8387 294.2802 15.06378636 79705","PERIAPSIS":"545.955","SITE":"AFETR","ARG_OF_PERICENTER":"65.8387","TIME_SYSTEM":"UTC","FILE":"3277432","ECCENTRICITY":"0.00019120","COUNTRY_CODE":"US","INCLINATION":"53.0543","GP_ID":"194191213","RA_OF_ASC_NODE":"256.8176","SEMIMAJOR_AXIS":"6925.414","BSTAR":"0.00001991200000","EPHEMERIS_TYPE":"0"},{"ARG_OF_PERICENTER":"70.6782","TLE_LINE2":"2 46121  53.0540 235.1738 0002340  70.6782 289.4460 15.06388813 79418","PERIAPSIS":"545.627","SITE":"AFETR","FILE":"3277779","TIME_SYSTEM":"UTC","RCS_SIZE":"LARGE","EPOCH":"2022-01-19T17:06:36.859968","OBJECT_TYPE":"PAYLOAD","ELEMENT_SET_NO":"999","REF_FRAME":"TEME","BSTAR":"0.00014053000000","SEMIMAJOR_AXIS":"6925.383","GP_ID":"194199387","RA_OF_ASC_NODE":"235.1738","EPHEMERIS_TYPE":"0","ECCENTRICITY":"0.00023400","INCLINATION":"53.0540","COUNTRY_CODE":"US","MEAN_ELEMENT_THEORY":"SGP4","CLASSIFICATION_TYPE":"U","LAUNCH_DATE":"2020-08-18","PERIOD":"95.593","CENTER_NAME":"EARTH","MEAN_MOTION_DDOT":"0.0000000000000","MEAN_ANOMALY":"289.4460","TLE_LINE1":"1 46121U 20057E   22019.71292662  .00001811  00000-0  14053-3 0  9994","OBJECT_NAME":"STARLINK-1602","APOAPSIS":"548.868","DECAY_DATE":null,"MEAN_MOTION":"15.06388813","NORAD_CAT_ID":"46121","REV_AT_EPOCH":"7941","OBJECT_ID":"2020-057E","MEAN_MOTION_DOT":"0.00001811"},{"TLE_LINE2":"2 46122  53.0522 216.0132 0002513  76.0111 284.1158 15.06400384 80262","SITE":"AFETR","PERIAPSIS":"545.472","ARG_OF_PERICENTER":"76.0111","TIME_SYSTEM":"UTC","FILE":"3277432","OBJECT_TYPE":"PAYLOAD","EPOCH":"2022-01-19T12:33:15.344064","RCS_SIZE":"LARGE","REF_FRAME":"TEME","ELEMENT_SET_NO":"999","GP_ID":"194190212","RA_OF_ASC_NODE":"216.0132","SEMIMAJOR_AXIS":"6925.347","BSTAR":"0.00016772000000","EPHEMERIS_TYPE":"0","ECCENTRICITY":"0.00025130","COUNTRY_CODE":"US","INCLINATION":"53.0522","CLASSIFICATION_TYPE":"U","LAUNCH_DATE":"2020-08-18","MEAN_ELEMENT_THEORY":"SGP4","MEAN_MOTION_DDOT":"0.0000000000000","PERIOD":"95.592","CENTER_NAME":"EARTH","APOAPSIS":"548.953","TLE_LINE1":"1 46122U 20057F   22019.52309426  .00002217  00000-0  16772-3 0  9992","MEAN_ANOMALY":"284.1158","OBJECT_NAME":"STARLINK-1604","NORAD_CAT_ID":"46122","MEAN_MOTION":"15.06400384","DECAY_DATE":null,"MEAN_MOTION_DOT":"0.00002217","OBJECT_ID":"2020-057F","REV_AT_EPOCH":"8026"},{"ARG_OF_PERICENTER":"66.0904","SITE":"AFETR","TLE_LINE2":"2 46123  53.0537 216.0873 0002123  66.0904 294.0307 15.06391636 80284","PERIAPSIS":"545.769","FILE":"3277432","TIME_SYSTEM":"UTC","RCS_SIZE":"LARGE","EPOCH":"2022-01-19T12:12:01.848672","OBJECT_TYPE":"PAYLOAD","ELEMENT_SET_NO":"999","REF_FRAME":"TEME","BSTAR":"0.00013514000000","SEMIMAJOR_AXIS":"6925.374","RA_OF_ASC_NODE":"216.0873","GP_ID":"194190462","EPHEMERIS_TYPE":"0","ECCENTRICITY":"0.00021230","INCLINATION":"53.0537","COUNTRY_CODE":"US","MEAN_ELEMENT_THEORY":"SGP4","CLASSIFICATION_TYPE":"U","LAUNCH_DATE":"2020-08-18","PERIOD":"95.593","CENTER_NAME":"EARTH","MEAN_MOTION_DDOT":"0.0000000000000","MEAN_ANOMALY":"294.0307","TLE_LINE1":"1 46123U 20057G   22019.50835473  .00001731  00000-0  13514-3 0  9998","OBJECT_NAME":"STARLINK-1605","APOAPSIS":"548.709","DECAY_DATE":null,"MEAN_MOTION":"15.06391636","NORAD_CAT_ID":"46123","REV_AT_EPOCH":"8028","OBJECT_ID":"2020-057G","MEAN_MOTION_DOT":"0.00001731"},{"MEAN_MOTION_DOT":"0.00000018","REV_AT_EPOCH":"7901","OBJECT_ID":"2020-057H","MEAN_ELEMENT_THEORY":"SGP4","CLASSIFICATION_TYPE":"U","LAUNCH_DATE":"2020-08-18","PERIOD":"95.593","CENTER_NAME":"EARTH","MEAN_MOTION_DDOT":"0.0000000000000","TLE_LINE1":"1 46124U 20057H   22019.51574424  .00000018  00000-0  20115-4 0  9999","MEAN_ANOMALY":"285.3922","OBJECT_NAME":"STARLINK-1614","APOAPSIS":"548.959","NORAD_CAT_ID":"46124","DECAY_DATE":null,"MEAN_MOTION":"15.06387029","RA_OF_ASC_NODE":"216.0640","GP_ID":"194190714","BSTAR":"0.00002011500000","SEMIMAJOR_AXIS":"6925.388","EPHEMERIS_TYPE":"0","ECCENTRICITY":"0.00024630","COUNTRY_CODE":"US","INCLINATION":"53.0542","ARG_OF_PERICENTER":"74.7339","TLE_LINE2":"2 46124  53.0542 216.0640 0002463  74.7339 285.3922 15.06387029 79014","SITE":"AFETR","PERIAPSIS":"545.548","TIME_SYSTEM":"UTC","FILE":"3277432","EPOCH":"2022-01-19T12:22:40.302336","OBJECT_TYPE":"PAYLOAD","RCS_SIZE":"LARGE","ELEMENT_SET_NO":"999","REF_FRAME":"TEME"},{"INCLINATION":"53.0532","COUNTRY_CODE":"US","ECCENTRICITY":"0.00019400","EPHEMERIS_TYPE":"0","SEMIMAJOR_AXIS":"6925.410","BSTAR":"0.00002812900000","GP_ID":"194191464","RA_OF_ASC_NODE":"258.2080","REF_FRAME":"TEME","ELEMENT_SET_NO":"999","RCS_SIZE":"LARGE","OBJECT_TYPE":"PAYLOAD","EPOCH":"2022-01-19T00:47:20.279904","FILE":"3277432","TIME_SYSTEM":"UTC","PERIAPSIS":"545.932","TLE_LINE2":"2 46125  53.0532 258.2080 0001940  67.6998 292.4197 15.06379904 79635","SITE":"AFETR","ARG_OF_PERICENTER":"67.6998","OBJECT_ID":"2020-057J","REV_AT_EPOCH":"7963","MEAN_MOTION_DOT":"0.00000137","MEAN_MOTION":"15.06379904","DECAY_DATE":null,"NORAD_CAT_ID":"46125","APOAPSIS":"548.619","TLE_LINE1":"1 46125U 20057J   22019.03287361  .00000137  00000-0  28129-4 0  9993","MEAN_ANOMALY":"292.4197","OBJECT_NAME":"STARLINK-1618","MEAN_MOTION_DDOT":"0.0000000000000","PERIOD":"95.593","CENTER_NAME":"EARTH","LAUNCH_DATE":"2020-08-18","CLASSIFICATION_TYPE":"U","MEAN_ELEMENT_THEORY":"SGP4"}];
